{
  "links" : {
    "next" : "https://api.nasa.gov/neo/rest/v1/neo/browse?page=18&size=20&api_key=jqAGvNAwUIBu4fl9FSOjdm3V4F7hIglRzI6pdX9d",
    "prev" : "https://api.nasa.gov/neo/rest/v1/neo/browse?page=16&size=20&api_key=jqAGvNAwUIBu4fl9FSOjdm3V4F7hIglRzI6pdX9d",
    "self" : "https://api.nasa.gov/neo/rest/v1/neo/browse?page=17&size=20&api_key=jqAGvNAwUIBu4fl9FSOjdm3V4F7hIglRzI6pdX9d"
  },
  "page" : {
    "size" : 20,
    "total_elements" : 20750,
    "total_pages" : 1038,
    "number" : 17
  },
  "near_earth_objects" : [ {
    "links" : {
      "self" : "https://api.nasa.gov/neo/rest/v1/neo/3262243?api_key=jqAGvNAwUIBu4fl9FSOjdm3V4F7hIglRzI6pdX9d"
    },
    "neo_reference_id" : "3262243",
    "name" : "(2004 VZ60)",
    "designation" : "2004 VZ60",
    "nasa_jpl_url" : "http://ssd.jpl.nasa.gov/sbdb.cgi?sstr=3262243",
    "absolute_magnitude_h" : 24.8,
    "estimated_diameter" : {
      "kilometers" : {
        "estimated_diameter_min" : 0.0291443905,
        "estimated_diameter_max" : 0.0651688382
      },
      "meters" : {
        "estimated_diameter_min" : 29.1443904535,
        "estimated_diameter_max" : 65.1688382168
      },
      "miles" : {
        "estimated_diameter_min" : 0.018109479,
        "estimated_diameter_max" : 0.0404940262
      },
      "feet" : {
        "estimated_diameter_min" : 95.6180819754,
        "estimated_diameter_max" : 213.8085311752
      }
    },
    "is_potentially_hazardous_asteroid" : false,
    "close_approach_data" : [ {
      "close_approach_date" : "2004-11-14",
      "epoch_date_close_approach" : 1100419200000,
      "relative_velocity" : {
        "kilometers_per_second" : "6.7248610627",
        "kilometers_per_hour" : "24209.49982585",
        "miles_per_hour" : "15042.8417112344"
      },
      "miss_distance" : {
        "astronomical" : "0.0605934166",
        "lunar" : "23.5708389282",
        "kilometers" : "9064646",
        "miles" : "5632510"
      },
      "orbiting_body" : "Earth"
    } ],
    "orbital_data" : {
      "orbit_id" : "11",
      "orbit_determination_date" : "2017-04-06 09:11:52",
      "first_observation_date" : "2004-11-04",
      "last_observation_date" : "2004-12-14",
      "data_arc_in_days" : 40,
      "observations_used" : 34,
      "orbit_uncertainty" : "7",
      "minimum_orbit_intersection" : ".0498369",
      "jupiter_tisserand_invariant" : "3.226",
      "epoch_osculation" : "2458600.5",
      "eccentricity" : ".5803594737713186",
      "semi_major_axis" : "2.471094579683488",
      "inclination" : "3.087394158864505",
      "ascending_node_longitude" : "228.8108352572493",
      "orbital_period" : "1418.836913913984",
      "perihelion_distance" : "1.036971429779221",
      "perihelion_argument" : "190.7958781150986",
      "aphelion_distance" : "3.905217729587755",
      "perihelion_time" : "2459024.809073512379",
      "mean_anomaly" : "252.3405044184543",
      "mean_motion" : ".2537289497260887",
      "equinox" : "J2000",
      "orbit_class" : {
        "orbit_class_type" : "AMO",
        "orbit_class_range" : "1.017 AU < q (perihelion) < 1.3 AU",
        "orbit_class_description" : "Near-Earth asteroid orbits similar to that of 1221 Amor"
      }
    },
    "is_sentry_object" : false
  }, {
    "links" : {
      "self" : "https://api.nasa.gov/neo/rest/v1/neo/3262409?api_key=jqAGvNAwUIBu4fl9FSOjdm3V4F7hIglRzI6pdX9d"
    },
    "neo_reference_id" : "3262409",
    "name" : "(2004 VQ65)",
    "designation" : "2004 VQ65",
    "nasa_jpl_url" : "http://ssd.jpl.nasa.gov/sbdb.cgi?sstr=3262409",
    "absolute_magnitude_h" : 22.3,
    "estimated_diameter" : {
      "kilometers" : {
        "estimated_diameter_min" : 0.0921626549,
        "estimated_diameter_max" : 0.2060819612
      },
      "meters" : {
        "estimated_diameter_min" : 92.1626548503,
        "estimated_diameter_max" : 206.0819612321
      },
      "miles" : {
        "estimated_diameter_min" : 0.057267201,
        "estimated_diameter_max" : 0.1280533543
      },
      "feet" : {
        "estimated_diameter_min" : 302.370924539,
        "estimated_diameter_max" : 676.1219416887
      }
    },
    "is_potentially_hazardous_asteroid" : false,
    "close_approach_data" : [ {
      "close_approach_date" : "2004-11-22",
      "epoch_date_close_approach" : 1101110400000,
      "relative_velocity" : {
        "kilometers_per_second" : "9.6473129101",
        "kilometers_per_hour" : "34730.326476526",
        "miles_per_hour" : "21580.0742487058"
      },
      "miss_distance" : {
        "astronomical" : "0.0261142198",
        "lunar" : "10.1584310532",
        "kilometers" : "3906631.75",
        "miles" : "2427468.5"
      },
      "orbiting_body" : "Earth"
    } ],
    "orbital_data" : {
      "orbit_id" : "11",
      "orbit_determination_date" : "2017-04-06 09:11:51",
      "first_observation_date" : "2004-11-14",
      "last_observation_date" : "2004-12-02",
      "data_arc_in_days" : 18,
      "observations_used" : 36,
      "orbit_uncertainty" : "8",
      "minimum_orbit_intersection" : ".0131718",
      "jupiter_tisserand_invariant" : "3.663",
      "epoch_osculation" : "2453330.5",
      "eccentricity" : ".516842317622761",
      "semi_major_axis" : "1.987354453809764",
      "inclination" : "9.25474801512844",
      "ascending_node_longitude" : "68.17661578399502",
      "orbital_period" : "1023.319913677122",
      "perihelion_distance" : ".960205571964809",
      "perihelion_argument" : "14.82874330458568",
      "aphelion_distance" : "3.014503335654718",
      "perihelion_time" : "2453348.997244312250",
      "mean_anomaly" : "353.492740771083",
      "mean_motion" : ".3517961442833674",
      "equinox" : "J2000",
      "orbit_class" : {
        "orbit_class_type" : "APO",
        "orbit_class_range" : "a (semi-major axis) > 1.0 AU; q (perihelion) < 1.017 AU",
        "orbit_class_description" : "Near-Earth asteroid orbits which cross the Earth’s orbit similar to that of 1862 Apollo"
      }
    },
    "is_sentry_object" : false
  }, {
    "links" : {
      "self" : "https://api.nasa.gov/neo/rest/v1/neo/3263252?api_key=jqAGvNAwUIBu4fl9FSOjdm3V4F7hIglRzI6pdX9d"
    },
    "neo_reference_id" : "3263252",
    "name" : "(2004 XH3)",
    "designation" : "2004 XH3",
    "nasa_jpl_url" : "http://ssd.jpl.nasa.gov/sbdb.cgi?sstr=3263252",
    "absolute_magnitude_h" : 24.1,
    "estimated_diameter" : {
      "kilometers" : {
        "estimated_diameter_min" : 0.040230458,
        "estimated_diameter_max" : 0.0899580388
      },
      "meters" : {
        "estimated_diameter_min" : 40.2304579834,
        "estimated_diameter_max" : 89.9580388169
      },
      "miles" : {
        "estimated_diameter_min" : 0.0249980399,
        "estimated_diameter_max" : 0.0558973165
      },
      "feet" : {
        "estimated_diameter_min" : 131.9896957704,
        "estimated_diameter_max" : 295.1379320721
      }
    },
    "is_potentially_hazardous_asteroid" : false,
    "close_approach_data" : [ {
      "close_approach_date" : "2004-12-06",
      "epoch_date_close_approach" : 1102320000000,
      "relative_velocity" : {
        "kilometers_per_second" : "9.8314954752",
        "kilometers_per_hour" : "35393.3837106458",
        "miles_per_hour" : "21992.0722284288"
      },
      "miss_distance" : {
        "astronomical" : "0.030225423",
        "lunar" : "11.757689476",
        "kilometers" : "4521659",
        "miles" : "2809628.5"
      },
      "orbiting_body" : "Earth"
    }, {
      "close_approach_date" : "2049-11-14",
      "epoch_date_close_approach" : 2520489600000,
      "relative_velocity" : {
        "kilometers_per_second" : "17.7681603008",
        "kilometers_per_hour" : "63965.3770828566",
        "miles_per_hour" : "39745.597776845"
      },
      "miss_distance" : {
        "astronomical" : "0.2859463686",
        "lunar" : "111.2331390381",
        "kilometers" : "42776968",
        "miles" : "26580376"
      },
      "orbiting_body" : "Earth"
    } ],
    "orbital_data" : {
      "orbit_id" : "7",
      "orbit_determination_date" : "2017-04-06 09:11:50",
      "first_observation_date" : "2004-12-01",
      "last_observation_date" : "2004-12-07",
      "data_arc_in_days" : 6,
      "observations_used" : 24,
      "orbit_uncertainty" : "8",
      "minimum_orbit_intersection" : ".00782899",
      "jupiter_tisserand_invariant" : "3.755",
      "epoch_osculation" : "2453343.5",
      "eccentricity" : ".5124560065895712",
      "semi_major_axis" : "1.91654802658571",
      "inclination" : "4.019484697716231",
      "ascending_node_longitude" : "266.7158647135795",
      "orbital_period" : "969.1209607734025",
      "perihelion_distance" : ".9344014784444739",
      "perihelion_argument" : "204.8629192784354",
      "aphelion_distance" : "2.898694574726947",
      "perihelion_time" : "2453373.677917456685",
      "mean_anomaly" : "348.789789175815",
      "mean_motion" : ".3714706569886835",
      "equinox" : "J2000",
      "orbit_class" : {
        "orbit_class_type" : "APO",
        "orbit_class_range" : "a (semi-major axis) > 1.0 AU; q (perihelion) < 1.017 AU",
        "orbit_class_description" : "Near-Earth asteroid orbits which cross the Earth’s orbit similar to that of 1862 Apollo"
      }
    },
    "is_sentry_object" : false
  } ]
}